{
  "type": "FeatureCollection",
  "features": [
    {
      "type": "Feature",
      "properties": {
        "norad_id": 42917,
        "name": "QZS-3 (QZSS/PRN 199)",
        "group": "gnss",
        "lat": -0.031010642795481175,
        "lon": 83.43776974267766,
        "alt_km": 35794.478301544594,
        "timestamp": "2025-12-13T15:35:12.350093+00:00",
        "meta_object_name": "QZS-3 (QZSS/PRN 199)",
        "meta_object_id": "2017-048A",
        "meta_epoch": "2025-12-12T22:38:46.092192",
        "meta_mean_motion": 1.0027204,
        "meta_eccentricity": 0.00019842,
        "meta_inclination": 0.0597,
        "meta_ra_of_asc_node": 194.3604,
        "meta_arg_of_pericenter": 74.6667,
        "meta_mean_anomaly": 279.611,
        "meta_ephemeris_type": 0,
        "meta_classification_type": "U",
        "meta_norad_cat_id": 42917,
        "meta_element_set_no": 999,
        "meta_rev_at_epoch": 3039,
        "meta_bstar": 0,
        "meta_mean_motion_dot": -3.35e-06,
        "meta_mean_motion_ddot": 0,
        "tle_line1": "1 42917U 17048A   25346.94358903 -.00000335  00000+0  00000+0 0  9994",
        "tle_line2": "2 42917   0.0597 194.3604 0001984  74.6667 279.6110  1.00272040 30398"
      },
      "geometry": {
        "type": "Point",
        "coordinates": [
          83.43776974267766,
          -0.031010642795481175
        ]
      }
    },
    {
      "type": "Feature",
      "properties": {
        "norad_id": 42939,
        "name": "COSMOS 2522 (752)",
        "group": "gnss",
        "lat": -64.05017494840807,
        "lon": 110.13292060472354,
        "alt_km": 19124.837415438677,
        "timestamp": "2025-12-13T15:35:12.350107+00:00",
        "meta_object_name": "COSMOS 2522 (752)",
        "meta_object_id": "2017-055A",
        "meta_epoch": "2025-12-10T22:48:12.074400",
        "meta_mean_motion": 2.1310181,
        "meta_eccentricity": 0.00064932,
        "meta_inclination": 64.076,
        "meta_ra_of_asc_node": 198.29,
        "meta_arg_of_pericenter": 225.3551,
        "meta_mean_anomaly": 134.6611,
        "meta_ephemeris_type": 0,
        "meta_classification_type": "U",
        "meta_norad_cat_id": 42939,
        "meta_element_set_no": 999,
        "meta_rev_at_epoch": 6396,
        "meta_bstar": 0,
        "meta_mean_motion_dot": 5.1e-07,
        "meta_mean_motion_ddot": 0,
        "tle_line1": "1 42939U 17055A   25344.95013975  .00000051  00000+0  00000+0 0  9996",
        "tle_line2": "2 42939  64.0760 198.2900 0006493 225.3551 134.6611  2.13101810 63969"
      },
      "geometry": {
        "type": "Point",
        "coordinates": [
          110.13292060472354,
          -64.05017494840807
        ]
      }
    },
    {
      "type": "Feature",
      "properties": {
        "norad_id": 42965,
        "name": "QZS-4 (QZSS/PRN 195)",
        "group": "gnss",
        "lat": 38.625548763152125,
        "lon": 94.90344611962391,
        "alt_km": 38873.08405903069,
        "timestamp": "2025-12-13T15:35:12.350119+00:00",
        "meta_object_name": "QZS-4 (QZSS/PRN 195)",
        "meta_object_id": "2017-062A",
        "meta_epoch": "2025-12-12T20:44:51.743328",
        "meta_mean_motion": 1.00252956,
        "meta_eccentricity": 0.07518695,
        "meta_inclination": 40.2257,
        "meta_ra_of_asc_node": 345.8683,
        "meta_arg_of_pericenter": 271.56,
        "meta_mean_anomaly": 271.9871,
        "meta_ephemeris_type": 0,
        "meta_classification_type": "U",
        "meta_norad_cat_id": 42965,
        "meta_element_set_no": 999,
        "meta_rev_at_epoch": 2993,
        "meta_bstar": 0,
        "meta_mean_motion_dot": -3.6e-06,
        "meta_mean_motion_ddot": 0,
        "tle_line1": "1 42965U 17062A   25346.86448777 -.00000360  00000+0  00000+0 0  9991",
        "tle_line2": "2 42965  40.2257 345.8683 0751869 271.5600 271.9871  1.00252956 29930"
      },
      "geometry": {
        "type": "Point",
        "coordinates": [
          94.90344611962391,
          38.625548763152125
        ]
      }
    },
    {
      "type": "Feature",
      "properties": {
        "norad_id": 43001,
        "name": "BEIDOU-3 M1 (C19)",
        "group": "gnss",
        "lat": -18.981360461260262,
        "lon": -97.654250085659,
        "alt_km": 21535.479515846684,
        "timestamp": "2025-12-13T15:35:12.350131+00:00",
        "meta_object_name": "BEIDOU-3 M1 (C19)",
        "meta_object_id": "2017-069A",
        "meta_epoch": "2025-12-10T02:59:44.237184",
        "meta_mean_motion": 1.86231011,
        "meta_eccentricity": 0.0009053,
        "meta_inclination": 56.5252,
        "meta_ra_of_asc_node": 69.32,
        "meta_arg_of_pericenter": 303.7778,
        "meta_mean_anomaly": 56.1585,
        "meta_ephemeris_type": 0,
        "meta_classification_type": "U",
        "meta_norad_cat_id": 43001,
        "meta_element_set_no": 999,
        "meta_rev_at_epoch": 5508,
        "meta_bstar": 0,
        "meta_mean_motion_dot": -5.2e-07,
        "meta_mean_motion_ddot": 0,
        "tle_line1": "1 43001U 17069A   25344.12481756 -.00000052  00000+0  00000+0 0  9999",
        "tle_line2": "2 43001  56.5252  69.3200 0009053 303.7778  56.1585  1.86231011 55088"
      },
      "geometry": {
        "type": "Point",
        "coordinates": [
          -97.654250085659,
          -18.981360461260262
        ]
      }
    },
    {
      "type": "Feature",
      "properties": {
        "norad_id": 43002,
        "name": "BEIDOU-3 M2 (C20)",
        "group": "gnss",
        "lat": -48.76495080651181,
        "lon": -61.832788751519466,
        "alt_km": 21532.71057679546,
        "timestamp": "2025-12-13T15:35:12.350141+00:00",
        "meta_object_name": "BEIDOU-3 M2 (C20)",
        "meta_object_id": "2017-069B",
        "meta_epoch": "2025-12-12T17:57:03.193632",
        "meta_mean_motion": 1.86230645,
        "meta_eccentricity": 0.00063664,
        "meta_inclination": 56.5266,
        "meta_ra_of_asc_node": 69.2696,
        "meta_arg_of_pericenter": 331.453,
        "meta_mean_anomaly": 28.5312,
        "meta_ephemeris_type": 0,
        "meta_classification_type": "U",
        "meta_norad_cat_id": 43002,
        "meta_element_set_no": 999,
        "meta_rev_at_epoch": 5512,
        "meta_bstar": 0,
        "meta_mean_motion_dot": -7.4e-07,
        "meta_mean_motion_ddot": 0,
        "tle_line1": "1 43002U 17069B   25346.74795363 -.00000074  00000+0  00000+0 0  9996",
        "tle_line2": "2 43002  56.5266  69.2696 0006366 331.4530  28.5312  1.86230645 55128"
      },
      "geometry": {
        "type": "Point",
        "coordinates": [
          -61.832788751519466,
          -48.76495080651181
        ]
      }
    },
    {
      "type": "Feature",
      "properties": {
        "norad_id": 43055,
        "name": "GSAT0215 (GALILEO 19)",
        "group": "gnss",
        "lat": -3.232403595447139,
        "lon": -135.63498605524907,
        "alt_km": 23219.148944035875,
        "timestamp": "2025-12-13T15:35:12.350152+00:00",
        "meta_object_name": "GSAT0215 (GALILEO 19)",
        "meta_object_id": "2017-079A",
        "meta_epoch": "2025-12-11T21:30:24.060384",
        "meta_mean_motion": 1.704739,
        "meta_eccentricity": 0.00012658,
        "meta_inclination": 55.1303,
        "meta_ra_of_asc_node": 226.661,
        "meta_arg_of_pericenter": 350.6161,
        "meta_mean_anomaly": 9.46,
        "meta_ephemeris_type": 0,
        "meta_classification_type": "U",
        "meta_norad_cat_id": 43055,
        "meta_element_set_no": 999,
        "meta_rev_at_epoch": 4979,
        "meta_bstar": 0,
        "meta_mean_motion_dot": 1.3e-07,
        "meta_mean_motion_ddot": 0,
        "tle_line1": "1 43055U 17079A   25345.89611181  .00000013  00000+0  00000+0 0  9997",
        "tle_line2": "2 43055  55.1303 226.6610 0001265 350.6161   9.4600  1.70473900 49794"
      },
      "geometry": {
        "type": "Point",
        "coordinates": [
          -135.63498605524907,
          -3.232403595447139
        ]
      }
    },
    {
      "type": "Feature",
      "properties": {
        "norad_id": 43056,
        "name": "GSAT0216 (GALILEO 20)",
        "group": "gnss",
        "lat": 2.2082740461446444,
        "lon": 45.08042447123863,
        "alt_km": 23228.00776301376,
        "timestamp": "2025-12-13T15:35:12.350163+00:00",
        "meta_object_name": "GSAT0216 (GALILEO 20)",
        "meta_object_id": "2017-079B",
        "meta_epoch": "2025-12-10T10:15:48.535776",
        "meta_mean_motion": 1.70473969,
        "meta_eccentricity": 0.000248,
        "meta_inclination": 55.1311,
        "meta_ra_of_asc_node": 226.7014,
        "meta_arg_of_pericenter": 319.9818,
        "meta_mean_anomaly": 40.0811,
        "meta_ephemeris_type": 0,
        "meta_classification_type": "U",
        "meta_norad_cat_id": 43056,
        "meta_element_set_no": 999,
        "meta_rev_at_epoch": 4978,
        "meta_bstar": 0,
        "meta_mean_motion_dot": 9e-08,
        "meta_mean_motion_ddot": 0,
        "tle_line1": "1 43056U 17079B   25344.42764509  .00000009  00000+0  00000+0 0  9994",
        "tle_line2": "2 43056  55.1311 226.7014 0002480 319.9818  40.0811  1.70473969 49789"
      },
      "geometry": {
        "type": "Point",
        "coordinates": [
          45.08042447123863,
          2.2082740461446444
        ]
      }
    }
  ]
}